EUTELSAT 8 WEST B       
1 40875U 15039B   26004.38656497 -.00000065  00000+0  00000+0 0  9992
2 40875   0.0632 356.6218 0004119 286.4172 312.1253  1.00271756 38011
EUTELSAT 9B             
1 41310U 16005A   26004.38977166  .00000062  00000+0  00000+0 0  9996
2 41310   0.0519  67.9303 0004979 214.0537 331.3147  1.00272548 36476
EUTELSAT 65 WEST A      
1 41382U 16014A   26004.44653868 -.00000276  00000+0  00000+0 0  9990
2 41382   0.0670 316.5153 0002528 326.7521 276.3334  1.00272660 35897
EUTELSAT 117 WEST B     
1 41589U 16038B   26004.43631193 -.00000011  00000+0  00000+0 0  9998
2 41589   0.0027 200.6661 0000216 210.8202  92.6394  1.00270325 35026
EUTELSAT 172B           
1 42741U 17029B   26004.38586542 -.00000005  00000+0  00000+0 0  9994
2 42741   0.0308 119.0378 0000255 164.4208 131.4285  1.00270103 32088
EUTELSAT 7C             
1 44334U 19034B   26004.24685738  .00000049  00000+0  00000+0 0  9991
2 44334   0.0748 182.1032 0003498  85.0967 292.4956  1.00268855  5192
EUTELSAT 5 WEST B       
1 44624U 19067A   26004.31584449 -.00000041  00000+0  00000+0 0  9997
2 44624   0.0727 328.8467 0003442 314.4023 289.3649  1.00271008 22796
EUTELSAT KONNECT        
1 45027U 20005B   26004.38951166  .00000050  00000+0  00000+0 0  9999
2 45027   0.0681  92.8360 0001665 190.5120 328.0616  1.00270920 22695
